NORAD_CAT_ID,OBJECT_NAME,OBJECT_TYPE,EPOCH,MEAN_MOTION,ECCENTRICITY,INCLINATION,RA_OF_ASC_NODE,ARG_OF_PERICENTER,MEAN_ANOMALY,BSTAR,MEAN_MOTION_DOT,MEAN_MOTION_DDOT,TLE_LINE0,TLE_LINE1,TLE_LINE2,SEMIMAJOR_AXIS,PERIOD,APOGEE,PERIGEE,DECAYED
52862.0,STARLINK-4010,PAYLOAD,2024-06-15 11:29:02,15.08847685,0.0002331,53.217,342.2289,81.9843,278.1413,0.00011938,1.613e-05,0.0,0 STARLINK-4010,1 52862U 22062AJ  24167.47850142  .00001613  00000-0  11938-3 0  9992,2 52862  53.2170 342.2289 0002331  81.9843 278.1413 15.08847685110487,6917.857,95.437,541.334,538.109,0.0
52862.0,STARLINK-4010,PAYLOAD,2024-06-15 17:50:35,15.0883714,0.0001381,53.217,341.0393,85.4211,274.6939,2.7812e-05,1.55e-06,0.0,0 STARLINK-4010,1 52862U 22062AJ  24167.74346846  .00000155  00000-0  27812-4 0  9992,2 52862  53.2170 341.0393 0001381  85.4211 274.6939 15.08837140110526,6917.889,95.438,540.709,538.799,0.0
52862.0,STARLINK-4010,PAYLOAD,2024-06-16 04:58:16,15.08851209,0.0001459,53.2194,338.9561,94.4343,265.6816,4.3789e-05,4.09e-06,0.0,0 STARLINK-4010,1 52862U 22062AJ  24168.20713718  .00000409  00000-0  43789-4 0  9993,2 52862  53.2194 338.9561 0001459  94.4343 265.6816 15.08851209110599,6917.846,95.437,540.72,538.702,0.0
52862.0,STARLINK-4010,PAYLOAD,2024-06-16 20:52:08,15.08838429,0.0001879,53.2214,335.9799,123.6326,236.4846,-4.6619e-05,-1.03e-05,0.0,0 STARLINK-4010,1 52862U 22062AJ  24168.86954739 -.00001030  00000-0 -46619-4 0  9993,2 52862  53.2214 335.9799 0001879 123.6326 236.4846 15.08838429110693,6917.885,95.438,541.05,538.45,0.0
52862.0,STARLINK-4010,PAYLOAD,2024-06-17 17:32:06,15.08862718,0.000166,53.2195,332.1168,98.6549,261.4631,0.00018993,2.738e-05,0.0,0 STARLINK-4010,1 52862U 22062AJ  24169.73063629  .00002738  00000-0  18993-3 0  9996,2 52862  53.2195 332.1168 0001660  98.6549 261.4631 15.08862718111314,6917.811,95.436,540.824,538.528,0.0
52862.0,STARLINK-4010,PAYLOAD,2024-06-18 11:01:24,15.08824121,7.92e-05,53.2203,328.8439,93.9512,266.1571,-3.6562e-05,-8.69e-06,0.0,0 STARLINK-4010,1 52862U 22062AJ  24170.45930778 -.00000869  00000-0 -36562-4 0  9993,2 52862  53.2203 328.8439 0000792  93.9512 266.1571 15.08824121111423,6917.929,95.439,540.342,539.246,0.0
52862.0,STARLINK-4010,PAYLOAD,2024-06-18 14:12:10,15.0882481,0.0001371,53.2199,328.2496,96.4698,263.645,-2.9788e-05,-7.62e-06,0.0,0 STARLINK-4010,1 52862U 22062AJ  24170.59178830 -.00000762  00000-0 -29788-4 0  9995,2 52862  53.2199 328.2496 0001371  96.4698 263.6450 15.08824810110951,6917.927,95.439,540.74,538.843,0.0
52862.0,STARLINK-4010,PAYLOAD,2024-06-18 20:33:42,15.0883137,0.0001265,53.2179,327.0617,86.2498,273.8638,-4.038e-05,-9.3e-06,0.0,0 STARLINK-4010,1 52862U 22062AJ  24170.85674612 -.00000930  00000-0 -40380-4 0  9991,2 52862  53.2179 327.0617 0001265  86.2498 273.8638 15.08831370111487,6917.907,95.438,540.647,538.897,0.0
52862.0,STARLINK-4010,PAYLOAD,2024-06-19 02:55:14,15.08838649,0.0001458,53.22,325.8738,90.5731,269.5428,4.791e-06,-2.12e-06,0.0,0 STARLINK-4010,1 52862U 22062AJ  24171.12170082 -.00000212  00000-0  47910-5 0  9993,2 52862  53.2200 325.8738 0001458  90.5731 269.5428 15.08838649111524,6917.885,95.438,540.758,538.741,0.0
52862.0,STARLINK-4010,PAYLOAD,2024-06-19 14:02:57,15.08829674,0.0001351,53.2195,323.7938,99.7812,260.3333,-0.00014569,-2.605e-05,0.0,0 STARLINK-4010,1 52862U 22062AJ  24171.58539050 -.00002605  00000-0 -14569-3 0  9998,2 52862  53.2195 323.7938 0001351  99.7812 260.3333 15.08829674111105,6917.912,95.438,540.712,538.842,0.0
52862.0,STARLINK-4010,PAYLOAD,2024-06-19 17:13:44,15.08827361,6.79e-05,53.2194,323.2009,82.5745,277.5325,-8.2121e-05,-1.594e-05,0.0,0 STARLINK-4010,1 52862U 22062AJ  24171.71787059 -.00001594  00000-0 -82121-4 0  9993,2 52862  53.2194 323.2009 0000679  82.5745 277.5325 15.08827361111613,6917.919,95.438,540.254,539.314,0.0
52862.0,STARLINK-4010,PAYLOAD,2024-06-20 13:53:45,15.08824934,0.0001551,53.2204,319.3333,94.6694,265.4476,7.0262e-05,8.3e-06,0.0,0 STARLINK-4010,1 52862U 22062AJ  24172.57899718  .00000830  00000-0  70262-4 0  9997,2 52862  53.2204 319.3333 0001551  94.6694 265.4476 15.08824934111254,6917.926,95.439,540.864,538.718,0.0
52862.0,STARLINK-4010,PAYLOAD,2024-06-20 17:04:31,15.08825696,0.0001403,53.2204,318.7396,95.4151,264.7001,0.00010302,1.351e-05,0.0,0 STARLINK-4010,1 52862U 22062AJ  24172.71147701  .00001351  00000-0  10302-3 0  9998,2 52862  53.2204 318.7396 0001403  95.4151 264.7001 15.08825696111273,6917.924,95.438,540.76,538.819,0.0
52862.0,STARLINK-4010,PAYLOAD,2024-06-21 13:44:32,15.08832764,0.0001624,53.2214,314.8746,103.2162,256.9011,0.00016226,2.295e-05,0.0,0 STARLINK-4010,1 52862U 22062AJ  24173.57259616  .00002295  00000-0  16226-3 0  9991,2 52862  53.2214 314.8746 0001624 103.2162 256.9011 15.08832764111891,6917.903,95.438,540.891,538.644,0.0
52862.0,STARLINK-4010,PAYLOAD,2024-06-21 16:55:18,15.08830207,0.0001508,53.2207,314.279,99.8717,260.2446,0.00020644,2.998e-05,0.0,0 STARLINK-4010,1 52862U 22062AJ  24173.70507734  .00002998  00000-0  20644-3 0  9992,2 52862  53.2207 314.2790 0001508  99.8717 260.2446 15.08830207111422,6917.91,95.438,540.819,538.732,0.0
52862.0,STARLINK-4010,PAYLOAD,2024-06-22 13:35:19,15.08835856,0.0001326,53.2191,310.4129,96.5437,263.5706,0.00010328,1.356e-05,0.0,0 STARLINK-4010,1 52862U 22062AJ  24174.56619890  .00001356  00000-0  10328-3 0  9999,2 52862  53.2191 310.4129 0001326  96.5437 263.5706 15.08835856111553,6917.893,95.438,540.675,538.841,0.0
52862.0,STARLINK-4010,PAYLOAD,2024-06-22 18:21:28,15.08843503,0.0001267,53.2188,309.5189,86.6066,273.5071,0.00010019,1.307e-05,0.0,0 STARLINK-4010,1 52862U 22062AJ  24174.76491462  .00001307  00000-0  10019-3 0  9997,2 52862  53.2188 309.5189 0001267  86.6066 273.5071 15.08843503112078,6917.87,95.437,540.611,538.858,0.0
52862.0,STARLINK-4010,PAYLOAD,2024-06-23 13:26:06,15.08843867,0.0001363,53.2189,305.9501,83.7758,276.3389,7.1315e-05,8.47e-06,0.0,0 STARLINK-4010,1 52862U 22062AJ  24175.55979388  .00000847  00000-0  71315-4 0  9998,2 52862  53.2189 305.9501 0001363  83.7758 276.3389 15.08843867111705,6917.869,95.437,540.676,538.791,0.0
52862.0,STARLINK-4010,PAYLOAD,2024-06-24 13:16:53,15.08842203,0.0001165,53.2185,301.4892,97.1194,262.993,5.4176e-06,-2.02e-06,0.0,0 STARLINK-4010,1 52862U 22062AJ  24176.55339406 -.00000202  00000-0  54176-5 0  9993,2 52862  53.2185 301.4892 0001165  97.1194 262.9930 15.08842203112345,6917.874,95.437,540.545,538.933,0.0
52862.0,STARLINK-4010,PAYLOAD,2024-06-24 14:52:16,15.0884271,0.0001199,53.2183,301.1917,94.1913,265.9216,1.194e-05,-9.8e-07,0.0,0 STARLINK-4010,1 52862U 22062AJ  24176.61963347 -.00000098  00000-0  11940-4 0  9991,2 52862  53.2183 301.1917 0001199  94.1913 265.9216 15.08842710111860,6917.872,95.437,540.567,538.908,0.0
52862.0,STARLINK-4010,PAYLOAD,2024-06-25 13:07:40,15.08839198,0.0001256,53.2181,297.0284,100.9662,259.1472,3.186e-06,-2.37e-06,0.0,0 STARLINK-4010,1 52862U 22062AJ  24177.54699500 -.00000237  00000-0  31860-5 0  9990,2 52862  53.2181 297.0284 0001256 100.9662 259.1472 15.08839198112001,6917.883,95.438,540.617,538.879,0.0
52862.0,STARLINK-4010,PAYLOAD,2024-06-26 11:23:04,15.08838987,0.0001274,53.2181,292.8656,102.1969,257.9166,5.7461e-05,6.27e-06,0.0,0 STARLINK-4010,1 52862U 22062AJ  24178.47435338  .00000627  00000-0  57461-4 0  9996,2 52862  53.2181 292.8656 0001274 102.1969 257.9166 15.08838987112631,6917.883,95.438,540.63,538.867,0.0
52862.0,STARLINK-4010,PAYLOAD,2024-06-27 12:49:15,15.08831837,0.0001067,53.2167,288.1054,79.4736,280.6377,-1.7038e-05,-5.59e-06,0.0,0 STARLINK-4010,1 52862U 22062AJ  24179.53420469 -.00000559  00000-0 -17038-4 0  9995,2 52862  53.2167 288.1054 0001067  79.4736 280.6377 15.08831837112794,6917.905,95.438,540.508,539.032,0.0
52862.0,STARLINK-4010,PAYLOAD,2024-06-27 14:24:38,15.08831295,0.0001148,53.2162,287.807,56.9242,303.186,-2.1997e-05,-6.38e-06,0.0,0 STARLINK-4010,1 52862U 22062AJ  24179.60044600 -.00000638  00000-0 -21997-4 0  9999,2 52862  53.2162 287.8070 0001148  56.9242 303.1860 15.08831295112319,6917.907,95.438,540.566,538.978,0.0
52862.0,STARLINK-4010,PAYLOAD,2024-06-28 12:40:01,15.08841064,0.0001413,53.2168,283.6475,71.077,289.0375,0.00013,1.782e-05,0.0,0 STARLINK-4010,1 52862U 22062AJ  24180.52779866  .00001782  00000-0  13000-3 0  9995,2 52862  53.2168 283.6475 0001413  71.0770 289.0375 15.08841064112944,6917.877,95.437,540.72,538.765,0.0
52862.0,STARLINK-4010,PAYLOAD,2024-06-28 23:47:42,15.08857232,0.0001202,53.2172,281.5619,72.3137,287.7986,0.00024603,3.632e-05,0.0,0 STARLINK-4010,1 52862U 22062AJ  24180.99146064  .00003632  00000-0  24603-3 0  9991,2 52862  53.2172 281.5619 0001202  72.3137 287.7986 15.08857232113019,6917.828,95.436,540.524,538.861,0.0
52862.0,STARLINK-4010,PAYLOAD,2024-06-29 12:30:51,15.08803505,0.0001349,53.2172,279.1901,105.4826,254.6315,-9.0814e-05,-1.731e-05,0.0,0 STARLINK-4010,1 52862U 22062AJ  24181.52142980 -.00001731  00000-0 -90814-4 0  9992,2 52862  53.2172 279.1901 0001349 105.4826 254.6315 15.08803505113092,6917.992,95.44,540.79,538.924,0.0
52862.0,STARLINK-4010,PAYLOAD,2024-06-29 14:06:13,15.08820963,0.0001081,53.2168,278.8858,104.4576,255.6536,-5.1958e-05,-1.114e-05,0.0,0 STARLINK-4010,1 52862U 22062AJ  24181.58765937 -.00001114  00000-0 -51958-4 0  9992,2 52862  53.2168 278.8858 0001081 104.4576 255.6536 15.08820963112618,6917.939,95.439,540.551,539.056,0.0
52862.0,STARLINK-4010,PAYLOAD,2024-06-29 15:41:37,15.08819646,0.0001078,53.2167,278.5891,103.1455,256.9657,-6.4599e-05,-1.315e-05,0.0,0 STARLINK-4010,1 52862U 22062AJ  24181.65390141 -.00001315  00000-0 -64599-4 0  9999,2 52862  53.2167 278.5891 0001078 103.1455 256.9657 15.08819646113119,6917.943,95.439,540.553,539.062,0.0
52862.0,STARLINK-4010,PAYLOAD,2024-06-29 23:38:32,15.08825267,0.0001337,53.2174,277.1075,101.2559,258.8584,6.396e-05,7.3e-06,0.0,0 STARLINK-4010,1 52862U 22062AJ  24181.98509836  .00000730  00000-0  63960-4 0  9997,2 52862  53.2174 277.1075 0001337 101.2559 258.8584 15.08825267113169,6917.925,95.438,540.715,538.865,0.0
